{
    "links": {
        "self": "http://www.neowsapp.com/rest/v1/neo/3760341?api_key=iIulBulltgU6a56xZRHN4H3l9WmuAYTsLGpBGhQ2"
    },
    "id": "3760341",
    "neo_reference_id": "3760341",
    "name": "(2016 TQ2)",
    "designation": "2016 TQ2",
    "nasa_jpl_url": "http://ssd.jpl.nasa.gov/sbdb.cgi?sstr=3760341",
    "absolute_magnitude_h": 26.4,
    "estimated_diameter": {
        "kilometers": {
            "estimated_diameter_min": 0.0139493823,
            "estimated_diameter_max": 0.0311917671
        },
        "meters": {
            "estimated_diameter_min": 13.9493822934,
            "estimated_diameter_max": 31.1917670523
        },
        "miles": {
            "estimated_diameter_min": 0.0086677416,
            "estimated_diameter_max": 0.0193816595
        },
        "feet": {
            "estimated_diameter_min": 45.7656914036,
            "estimated_diameter_max": 102.3351970157
        }
    },
    "is_potentially_hazardous_asteroid": false,
    "close_approach_data": [
        {
            "close_approach_date": "2001-04-30",
            "close_approach_date_full": "2001-Apr-30 13:17",
            "epoch_date_close_approach": 988636620000,
            "relative_velocity": {
                "kilometers_per_second": "25.2925321928",
                "kilometers_per_hour": "91053.1158942337",
                "miles_per_hour": "56576.8652621698"
            },
            "miss_distance": {
                "astronomical": "0.3882605662",
                "lunar": "151.0333602518",
                "kilometers": "58082953.708513994",
                "miles": "36091073.8691373572"
            },
            "orbiting_body": "Earth"
        },
        {
            "close_approach_date": "2016-10-02",
            "close_approach_date_full": "2016-Oct-02 11:03",
            "epoch_date_close_approach": 1475406180000,
            "relative_velocity": {
                "kilometers_per_second": "15.2966483228",
                "kilometers_per_hour": "55067.9339621315",
                "miles_per_hour": "34217.0726333033"
            },
            "miss_distance": {
                "astronomical": "0.0093856458",
                "lunar": "3.6510162162",
                "kilometers": "1404072.620254446",
                "miles": "872450.2701695148"
            },
            "orbiting_body": "Moon"
        },
        {
            "close_approach_date": "2016-10-02",
            "close_approach_date_full": "2016-Oct-02 16:45",
            "epoch_date_close_approach": 1475426700000,
            "relative_velocity": {
                "kilometers_per_second": "15.331485267",
                "kilometers_per_hour": "55193.3469610754",
                "miles_per_hour": "34294.9993936749"
            },
            "miss_distance": {
                "astronomical": "0.0085437493",
                "lunar": "3.3235184777",
                "kilometers": "1278126.697093991",
                "miles": "794191.1024434358"
            },
            "orbiting_body": "Earth"
        },
        {
            "close_approach_date": "2095-02-17",
            "close_approach_date_full": "2095-Feb-17 23:37",
            "epoch_date_close_approach": 3948824220000,
            "relative_velocity": {
                "kilometers_per_second": "11.6630828953",
                "kilometers_per_hour": "41987.0984230314",
                "miles_per_hour": "26089.1501284664"
            },
            "miss_distance": {
                "astronomical": "0.0979475413",
                "lunar": "38.1015935657",
                "kilometers": "14652743.550217031",
                "miles": "9104792.6472597878"
            },
            "orbiting_body": "Mars"
        },
        {
            "close_approach_date": "2095-05-03",
            "close_approach_date_full": "2095-May-03 12:48",
            "epoch_date_close_approach": 3955265280000,
            "relative_velocity": {
                "kilometers_per_second": "24.7565816632",
                "kilometers_per_hour": "89123.6939875812",
                "miles_per_hour": "55377.9975224501"
            },
            "miss_distance": {
                "astronomical": "0.3759874965",
                "lunar": "146.2591361385",
                "kilometers": "56246928.623032455",
                "miles": "34950220.783079679"
            },
            "orbiting_body": "Earth"
        }
    ],
    "orbital_data": {
        "orbit_id": "8",
        "orbit_determination_date": "2017-04-06 08:23:26",
        "first_observation_date": "2016-10-04",
        "last_observation_date": "2016-10-10",
        "data_arc_in_days": 6,
        "observations_used": 89,
        "orbit_uncertainty": "7",
        "minimum_orbit_intersection": ".00696455",
        "jupiter_tisserand_invariant": "3.766",
        "epoch_osculation": "2459000.5",
        "eccentricity": ".5636074198570946",
        "semi_major_axis": "1.863030611678614",
        "inclination": "10.21609535450318",
        "ascending_node_longitude": "11.27550198979633",
        "orbital_period": "928.8132735457954",
        "perihelion_distance": ".8130127355156453",
        "perihelion_argument": "296.2722237210523",
        "aphelion_distance": "2.913048487841582",
        "perihelion_time": "2458550.050031693553",
        "mean_anomaly": "174.5905158862111",
        "mean_motion": ".3875913601295558",
        "equinox": "J2000",
        "orbit_class": {
            "orbit_class_type": "APO",
            "orbit_class_description": "Near-Earth asteroid orbits which cross the Earth’s orbit similar to that of 1862 Apollo",
            "orbit_class_range": "a (semi-major axis) > 1.0 AU; q (perihelion) < 1.017 AU"
        }
    },
    "is_sentry_object": false
}